CTC2_L_00527094-01
1 10186U 24788XL  26075.70048611  .00000000  00000+0  00000-0 0  9991
2 10186  98.2000 279.0000 0000000   0.0000 198.0000 14.57888518    19
CTC2_L_00527094-02
1 10187U 23878WK  26075.70048611  .00000000  00000+0  00000-0 0  9991
2 10187  98.2000 279.0000 0000000   0.0000  18.0000 14.57888518    11
CTC2_L_00527095-01
1 10188U 26976AB  26075.70048611  .00000000  00000+0  00000-0 0  9994
2 10188  98.2000 282.0000 0000000   0.0000 204.0000 14.57888518    13
CTC2_L_00527095-02
1 10189U 23637L   26075.70048611  .00000000  00000+0  00000-0 0  9996
2 10189  98.2000 282.0000 0000000   0.0000  24.0000 14.57888518    14
CTC2_L_00527096-01
1 10190U 26275OG  26075.70048611  .00000000  00000+0  00000-0 0  9999
2 10190  98.2000 285.0000 0000000   0.0000 210.0000 14.57888518    16
CTC2_L_00527096-02
1 10191U 22332FE  26075.70048611  .00000000  00000+0  00000-0 0  9990
2 10191  98.2000 285.0000 0000000   0.0000  30.0000 14.57888518    17
CTC2_L_00527097-01
1 10192U 25096UN  26075.70048611  .00000000  00000+0  00000-0 0  9991
2 10192  98.2000 288.0000 0000000   0.0000 216.0000 14.57888518    17
CTC2_L_00527097-02
1 10193U 22550FK  26075.70048611  .00000000  00000+0  00000-0 0  9994
2 10193  98.2000 288.0000 0000000   0.0000  36.0000 14.57888518    18
CTC2_L_00527098-01
1 10194U 26403LJ  26075.70048611  .00000000  00000+0  00000-0 0  9996
2 10194  98.2000 291.0000 0000000   0.0000 222.0000 14.57888518    10
CTC2_L_00527098-02
1 10195U 26018TN  26075.70048611  .00000000  00000+0  00000-0 0  9999
2 10195  98.2000 291.0000 0000000   0.0000  42.0000 14.57888518    11
CTC2_L_00527099-01
1 10196U 26574YJ  26075.70048611  .00000000  00000+0  00000-0 0  9997
2 10196  98.2000 294.0000 0000000   0.0000 228.0000 14.57888518    11
CTC2_L_00527099-02
1 10197U 26590FD  26075.70048611  .00000000  00000+0  00000-0 0  9996
2 10197  98.2000 294.0000 0000000   0.0000  48.0000 14.57888518    12
CTC2_L_00527100-01
1 10198U 22056ZE  26075.70048611  .00000000  00000+0  00000-0 0  9990
2 10198  98.2000 297.0000 0000000   0.0000 234.0000 14.57888518    13
CTC2_L_00527100-02
1 10199U 23669L   26075.70048611  .00000000  00000+0  00000-0 0  9992
2 10199  98.2000 297.0000 0000000   0.0000  54.0000 14.57888518    14
CTC2_L_00527101-01
1 10200U 26716PW  26075.70048611  .00000000  00000+0  00000-0 0  9991
2 10200  98.2000 300.0000 0000000   0.0000 240.0000 14.57888518    19
CTC2_L_00527101-02
1 10201U 25896LE  26075.70048611  .00000000  00000+0  00000-0 0  9990
2 10201  98.2000 300.0000 0000000   0.0000  60.0000 14.57888518    10
CTC2_L_00527102-01
1 10202U 25248TJ  26075.70048611  .00000000  00000+0  00000-0 0  9992
2 10202  98.2000 303.0000 0000000   0.0000 246.0000 14.57888518    10
CTC2_L_00527102-02
1 10203U 23860QP  26075.70048611  .00000000  00000+0  00000-0 0  9991
2 10203  98.2000 303.0000 0000000   0.0000  66.0000 14.57888518    11
CTC2_L_00527103-01
1 10204U 23597EQ  26075.70048611  .00000000  00000+0  00000-0 0  9999
2 10204  98.2000 306.0000 0000000   0.0000 252.0000 14.57888518    12
CTC2_L_00527103-02
1 10205U 26747UI  26075.70048611  .00000000  00000+0  00000-0 0  9990
2 10205  98.2000 306.0000 0000000   0.0000  72.0000 14.57888518    13
CTC2_L_00527104-01
1 10206U 26068NJ  26075.70048611  .00000000  00000+0  00000-0 0  9997
2 10206  98.2000 309.0000 0000000   0.0000 258.0000 14.57888518    13
CTC2_L_00527104-02
1 10207U 24628LN  26075.70048611  .00000000  00000+0  00000-0 0  9998
2 10207  98.2000 309.0000 0000000   0.0000  78.0000 14.57888518    14
CTC2_L_00527105-01
1 10208U 24225DU  26075.70048611  .00000000  00000+0  00000-0 0  9992
2 10208  98.2000 312.0000 0000000   0.0000 264.0000 14.57888518    16
CTC2_L_00527105-02
1 10209U 24824DE  26075.70048611  .00000000  00000+0  00000-0 0  9998
2 10209  98.2000 312.0000 0000000   0.0000  84.0000 14.57888518    17
CTC2_L_00527106-01
1 10210U 24592LV  26075.70048611  .00000000  00000+0  00000-0 0  9992
2 10210  98.2000 315.0000 0000000   0.0000 270.0000 14.57888518    19
CTC2_L_00527106-02
1 10211U 23337TJ  26075.70048611  .00000000  00000+0  00000-0 0  9999
2 10211  98.2000 315.0000 0000000   0.0000  90.0000 14.57888518    10
CTC2_L_00527107-01
1 10212U 23114KG  26075.70048611  .00000000  00000+0  00000-0 0  9993
2 10212  98.2000 318.0000 0000000   0.0000 276.0000 14.57888518    10
CTC2_L_00527107-02
1 10213U 23759DN  26075.70048611  .00000000  00000+0  00000-0 0  9999
2 10213  98.2000 318.0000 0000000   0.0000  96.0000 14.57888518    11
CTC2_L_00527108-01
1 10214U 22474QV  26075.70048611  .00000000  00000+0  00000-0 0  9993
2 10214  98.2000 321.0000 0000000   0.0000 282.0000 14.57888518    13
CTC2_L_00527108-02
1 10215U 22322H   26075.70048611  .00000000  00000+0  00000-0 0  9996
2 10215  98.2000 321.0000 0000000   0.0000 102.0000 14.57888518    15
CTC2_L_00527109-01
1 10216U 22309XD  26075.70048611  .00000000  00000+0  00000-0 0  9992
2 10216  98.2000 324.0000 0000000   0.0000 288.0000 14.57888518    14
CTC2_L_00527109-02
1 10217U 26300TP  26075.70048611  .00000000  00000+0  00000-0 0  9998
2 10217  98.2000 324.0000 0000000   0.0000 108.0000 14.57888518    16
CTC2_L_00527110-01
1 10218U 26613FG  26075.70048611  .00000000  00000+0  00000-0 0  9996
2 10218  98.2000 327.0000 0000000   0.0000 294.0000 14.57888518    16
CTC2_L_00527110-02
1 10219U 25694NT  26075.70048611  .00000000  00000+0  00000-0 0  9995
2 10219  98.2000 327.0000 0000000   0.0000 114.0000 14.57888518    18
CTC2_L_00527111-01
1 10220U 23598UV  26075.70048611  .00000000  00000+0  00000-0 0  9998
2 10220  98.2000 330.0000 0000000   0.0000 300.0000 14.57888518    11
CTC2_L_00527111-02
1 10221U 26098N   26075.70048611  .00000000  00000+0  00000-0 0  9997
2 10221  98.2000 330.0000 0000000   0.0000 120.0000 14.57888518    12
CTC2_L_00527112-01
1 10222U 24016QM  26075.70048611  .00000000  00000+0  00000-0 0  9996
2 10222  98.2000 333.0000 0000000   0.0000 306.0000 14.57888518    12
CTC2_L_00527112-02
1 10223U 24666IX  26075.70048611  .00000000  00000+0  00000-0 0  9998
2 10223  98.2000 333.0000 0000000   0.0000 126.0000 14.57888518    13
CTC2_L_00527113-01
1 10224U 22442XP  26075.70048611  .00000000  00000+0  00000-0 0  9999
2 10224  98.2000 336.0000 0000000   0.0000 312.0000 14.57888518    14
CTC2_L_00527113-02
1 10225U 24412YM  26075.70048611  .00000000  00000+0  00000-0 0  9999
2 10225  98.2000 336.0000 0000000   0.0000 132.0000 14.57888518    15
CTC2_L_00527114-01
1 10226U 25021RX  26075.70048611  .00000000  00000+0  00000-0 0  9997
2 10226  98.2000 339.0000 0000000   0.0000 318.0000 14.57888518    15
CTC2_L_00527114-02
1 10227U 25262QF  26075.70048611  .00000000  00000+0  00000-0 0  9995
2 10227  98.2000 339.0000 0000000   0.0000 138.0000 14.57888518    16
CTC2_L_00527115-01
1 10228U 23530OK  26075.70048611  .00000000  00000+0  00000-0 0  9992
2 10228  98.2000 342.0000 0000000   0.0000 324.0000 14.57888518    18
CTC2_L_00527115-02
1 10229U 25006YG  26075.70048611  .00000000  00000+0  00000-0 0  9993
2 10229  98.2000 342.0000 0000000   0.0000 144.0000 14.57888518    19
CTC2_L_00527116-01
1 10230U 23189TM  26075.70048611  .00000000  00000+0  00000-0 0  9995
2 10230  98.2000 345.0000 0000000   0.0000 330.0000 14.57888518    11
CTC2_L_00527116-02
1 10231U 26785XD  26075.70048611  .00000000  00000+0  00000-0 0  9991
2 10231  98.2000 345.0000 0000000   0.0000 150.0000 14.57888518    12
CTC2_L_00527117-01
1 10232U 25763SE  26075.70048611  .00000000  00000+0  00000-0 0  9997
2 10232  98.2000 348.0000 0000000   0.0000 336.0000 14.57888518    12
CTC2_L_00527117-02
1 10233U 25301LB  26075.70048611  .00000000  00000+0  00000-0 0  9996
2 10233  98.2000 348.0000 0000000   0.0000 156.0000 14.57888518    13
CTC2_L_00527118-01
1 10234U 22853AU  26075.70048611  .00000000  00000+0  00000-0 0  9996
2 10234  98.2000 351.0000 0000000   0.0000 342.0000 14.57888518    15
CTC2_L_00527118-02
1 10235U 23601XH  26075.70048611  .00000000  00000+0  00000-0 0  9999
2 10235  98.2000 351.0000 0000000   0.0000 162.0000 14.57888518    16
CTC2_L_00527119-01
1 10236U 26913F   26075.70048611  .00000000  00000+0  00000-0 0  9999
2 10236  98.2000 354.0000 0000000   0.0000 348.0000 14.57888518    16
CTC2_L_00527119-02
1 10237U 22863OA  26075.70048611  .00000000  00000+0  00000-0 0  9990
2 10237  98.2000 354.0000 0000000   0.0000 168.0000 14.57888518    17
CTC2_L_00527120-01
1 10238U 23635RB  26075.70048611  .00000000  00000+0  00000-0 0  9999
2 10238  98.2000 357.0000 0000000   0.0000 354.0000 14.57888518    18
CTC2_L_00527120-02
1 10239U 22608VR  26075.70048611  .00000000  00000+0  00000-0 0  9999
2 10239  98.2000 357.0000 0000000   0.0000 174.0000 14.57888518    19
